[{"OBJECT_NAME":"ICEYE-X4","OBJECT_ID":"2019-038D","EPOCH":"2026-03-09T23:53:58.416000","MEAN_MOTION":15.26985132,"ECCENTRICITY":0.00122769,"INCLINATION":97.8888,"RA_OF_ASC_NODE":96.1923,"ARG_OF_PERICENTER":293.9914,"MEAN_ANOMALY":66.0038,"EPHEMERIS_TYPE":0,"CLASSIFICATION_TYPE":"U","NORAD_CAT_ID":44390,"ELEMENT_SET_NO":999,"REV_AT_EPOCH":36665,"BSTAR":0.00049915294,"MEAN_MOTION_DOT":0.00013179,"MEAN_MOTION_DDOT":0},{"OBJECT_NAME":"STARLINK-31905","OBJECT_ID":"2024-100M","EPOCH":"2026-03-09T03:40:59.554848","MEAN_MOTION":15.27574954,"ECCENTRICITY":0.00011304,"INCLINATION":43.0007,"RA_OF_ASC_NODE":125.0691,"ARG_OF_PERICENTER":220.3311,"MEAN_ANOMALY":139.7457,"EPHEMERIS_TYPE":0,"CLASSIFICATION_TYPE":"U","NORAD_CAT_ID":59896,"ELEMENT_SET_NO":999,"REV_AT_EPOCH":10111,"BSTAR":-1.2087941e-5,"MEAN_MOTION_DOT":-5.95e-6,"MEAN_MOTION_DDOT":0}]
